[{"OBJECT_NAME":"STARLINK-33981","OBJECT_ID":"2025-094AA","EPOCH":"2026-03-09T16:55:19.663680","MEAN_MOTION":14.98341865,"ECCENTRICITY":0.0002901,"INCLINATION":70.0026,"RA_OF_ASC_NODE":234.4853,"ARG_OF_PERICENTER":262.0511,"MEAN_ANOMALY":98.0319,"EPHEMERIS_TYPE":0,"CLASSIFICATION_TYPE":"U","NORAD_CAT_ID":63888,"ELEMENT_SET_NO":999,"REV_AT_EPOCH":4720,"BSTAR":0.00056996357,"MEAN_MOTION_DOT":6.716e-5,"MEAN_MOTION_DDOT":0},{"OBJECT_NAME":"CZ-6A DEB","OBJECT_ID":"2024-140XA","EPOCH":"2026-03-09T13:38:46.141440","MEAN_MOTION":14.97207457,"ECCENTRICITY":0.0079782,"INCLINATION":88.8472,"RA_OF_ASC_NODE":268.9899,"ARG_OF_PERICENTER":170.4337,"MEAN_ANOMALY":189.8439,"EPHEMERIS_TYPE":0,"CLASSIFICATION_TYPE":"U","NORAD_CAT_ID":61385,"ELEMENT_SET_NO":999,"REV_AT_EPOCH":8131,"BSTAR":0.0034461,"MEAN_MOTION_DOT":0.00042743,"MEAN_MOTION_DDOT":0}]
